TIANMU-1 07             
1 57399U 23101A   25334.15212587  .00008870  00000+0  32921-3 0  9990
2 57399  97.2900  24.2812 0005506 113.6671 246.5147 15.27793463131238
TIANMU-1 08             
1 57400U 23101B   25334.18443312  .00008589  00000+0  31892-3 0  9991
2 57400  97.2889  24.1131 0007353 119.2182 240.9793 15.27779420131233
TIANMU-1 09             
1 57401U 23101C   25334.17141913  .00009233  00000+0  34244-3 0  9994
2 57401  97.2847  23.6206 0006628 118.0916 242.0994 15.27799419131237
TIANMU-1 10             
1 57402U 23101D   25334.20556381  .00009143  00000+0  33910-3 0  9997
2 57402  97.2926  24.4903 0008382 119.8685 240.3388 15.27791051131232
FENGYUN 3F              
1 57490U 23111A   25334.18864128  .00000086  00000+0  61022-4 0  9996
2 57490  98.7099  42.6837 0000727  81.8765 278.2494 14.19888306120625
ARKTIKA-M 2             
1 58584U 23198A   25329.38147876  .00000201  00000+0  00000+0 0  9999
2 58584  63.2269 176.7630 6863801 268.1765  18.8388  2.00606686 14237
TIANMU-1 11             
1 58645U 23205A   25334.14455976  .00007724  00000+0  31791-3 0  9991
2 58645  97.3624 353.9912 0009210 358.6812   1.4400 15.24365615107171
TIANMU-1 12             
1 58646U 23205B   25334.23633618  .00007378  00000+0  30477-3 0  9998
2 58646  97.3610 353.8910 0006997 344.9332  15.1696 15.24278108107177
