{
  "type": "FeatureCollection",
  "features": [
    {
      "type": "Feature",
      "properties": {
        "OBJECT_NAME": "TIANMU-1 07",
        "OBJECT_ID": "2023-101A",
        "EPOCH": "2025-11-30T03:39:03.675168",
        "MEAN_MOTION": 15.27793463,
        "ECCENTRICITY": 0.0005506,
        "INCLINATION": 97.29,
        "RA_OF_ASC_NODE": 24.2812,
        "ARG_OF_PERICENTER": 113.6671,
        "MEAN_ANOMALY": 246.5147,
        "EPHEMERIS_TYPE": 0,
        "CLASSIFICATION_TYPE": "U",
        "NORAD_CAT_ID": 57399,
        "ELEMENT_SET_NO": 999,
        "REV_AT_EPOCH": 13123,
        "BSTAR": 0.00032921,
        "MEAN_MOTION_DOT": 8.87e-05,
        "MEAN_MOTION_DDOT": 0,
        "norad_id": 57399,
        "name": "TIANMU-1 07",
        "group": "weather",
        "longitude_deg": NaN,
        "latitude_deg": NaN,
        "alt_km": NaN,
        "orbit_class": "HEO",
        "timestamp": "2025-11-30T09:33:02.543023+00:00"
      },
      "geometry": {
        "type": "Point",
        "coordinates": [
          NaN,
          NaN
        ]
      }
    },
    {
      "type": "Feature",
      "properties": {
        "OBJECT_NAME": "TIANMU-1 08",
        "OBJECT_ID": "2023-101B",
        "EPOCH": "2025-11-30T04:25:35.021568",
        "MEAN_MOTION": 15.2777942,
        "ECCENTRICITY": 0.0007353,
        "INCLINATION": 97.2889,
        "RA_OF_ASC_NODE": 24.1131,
        "ARG_OF_PERICENTER": 119.2182,
        "MEAN_ANOMALY": 240.9793,
        "EPHEMERIS_TYPE": 0,
        "CLASSIFICATION_TYPE": "U",
        "NORAD_CAT_ID": 57400,
        "ELEMENT_SET_NO": 999,
        "REV_AT_EPOCH": 13123,
        "BSTAR": 0.00031892,
        "MEAN_MOTION_DOT": 8.589e-05,
        "MEAN_MOTION_DDOT": 0,
        "norad_id": 57400,
        "name": "TIANMU-1 08",
        "group": "weather",
        "longitude_deg": NaN,
        "latitude_deg": NaN,
        "alt_km": NaN,
        "orbit_class": "HEO",
        "timestamp": "2025-11-30T09:33:02.543029+00:00"
      },
      "geometry": {
        "type": "Point",
        "coordinates": [
          NaN,
          NaN
        ]
      }
    },
    {
      "type": "Feature",
      "properties": {
        "OBJECT_NAME": "TIANMU-1 09",
        "OBJECT_ID": "2023-101C",
        "EPOCH": "2025-11-30T04:06:50.612832",
        "MEAN_MOTION": 15.27799419,
        "ECCENTRICITY": 0.0006628,
        "INCLINATION": 97.2847,
        "RA_OF_ASC_NODE": 23.6206,
        "ARG_OF_PERICENTER": 118.0916,
        "MEAN_ANOMALY": 242.0994,
        "EPHEMERIS_TYPE": 0,
        "CLASSIFICATION_TYPE": "U",
        "NORAD_CAT_ID": 57401,
        "ELEMENT_SET_NO": 999,
        "REV_AT_EPOCH": 13123,
        "BSTAR": 0.00034244,
        "MEAN_MOTION_DOT": 9.233e-05,
        "MEAN_MOTION_DDOT": 0,
        "norad_id": 57401,
        "name": "TIANMU-1 09",
        "group": "weather",
        "longitude_deg": NaN,
        "latitude_deg": NaN,
        "alt_km": NaN,
        "orbit_class": "HEO",
        "timestamp": "2025-11-30T09:33:02.543037+00:00"
      },
      "geometry": {
        "type": "Point",
        "coordinates": [
          NaN,
          NaN
        ]
      }
    },
    {
      "type": "Feature",
      "properties": {
        "OBJECT_NAME": "TIANMU-1 10",
        "OBJECT_ID": "2023-101D",
        "EPOCH": "2025-11-30T04:56:00.713184",
        "MEAN_MOTION": 15.27791051,
        "ECCENTRICITY": 0.0008382,
        "INCLINATION": 97.2926,
        "RA_OF_ASC_NODE": 24.4903,
        "ARG_OF_PERICENTER": 119.8685,
        "MEAN_ANOMALY": 240.3388,
        "EPHEMERIS_TYPE": 0,
        "CLASSIFICATION_TYPE": "U",
        "NORAD_CAT_ID": 57402,
        "ELEMENT_SET_NO": 999,
        "REV_AT_EPOCH": 13123,
        "BSTAR": 0.0003391,
        "MEAN_MOTION_DOT": 9.143e-05,
        "MEAN_MOTION_DDOT": 0,
        "norad_id": 57402,
        "name": "TIANMU-1 10",
        "group": "weather",
        "longitude_deg": NaN,
        "latitude_deg": NaN,
        "alt_km": NaN,
        "orbit_class": "HEO",
        "timestamp": "2025-11-30T09:33:02.543043+00:00"
      },
      "geometry": {
        "type": "Point",
        "coordinates": [
          NaN,
          NaN
        ]
      }
    },
    {
      "type": "Feature",
      "properties": {
        "OBJECT_NAME": "FENGYUN 3F",
        "OBJECT_ID": "2023-111A",
        "EPOCH": "2025-11-30T04:31:38.606592",
        "MEAN_MOTION": 14.19888306,
        "ECCENTRICITY": 7.27e-05,
        "INCLINATION": 98.7099,
        "RA_OF_ASC_NODE": 42.6837,
        "ARG_OF_PERICENTER": 81.8765,
        "MEAN_ANOMALY": 278.2494,
        "EPHEMERIS_TYPE": 0,
        "CLASSIFICATION_TYPE": "U",
        "NORAD_CAT_ID": 57490,
        "ELEMENT_SET_NO": 999,
        "REV_AT_EPOCH": 12062,
        "BSTAR": 6.1022e-05,
        "MEAN_MOTION_DOT": 8.6e-07,
        "MEAN_MOTION_DDOT": 0,
        "norad_id": 57490,
        "name": "FENGYUN 3F",
        "group": "weather",
        "longitude_deg": NaN,
        "latitude_deg": NaN,
        "alt_km": NaN,
        "orbit_class": "HEO",
        "timestamp": "2025-11-30T09:33:02.543442+00:00"
      },
      "geometry": {
        "type": "Point",
        "coordinates": [
          NaN,
          NaN
        ]
      }
    },
    {
      "type": "Feature",
      "properties": {
        "OBJECT_NAME": "ARKTIKA-M 2",
        "OBJECT_ID": "2023-198A",
        "EPOCH": "2025-11-25T09:09:19.764864",
        "MEAN_MOTION": 2.00606686,
        "ECCENTRICITY": 0.68638015,
        "INCLINATION": 63.2269,
        "RA_OF_ASC_NODE": 176.763,
        "ARG_OF_PERICENTER": 268.1765,
        "MEAN_ANOMALY": 18.8388,
        "EPHEMERIS_TYPE": 0,
        "CLASSIFICATION_TYPE": "U",
        "NORAD_CAT_ID": 58584,
        "ELEMENT_SET_NO": 999,
        "REV_AT_EPOCH": 1423,
        "BSTAR": 0,
        "MEAN_MOTION_DOT": 2.01e-06,
        "MEAN_MOTION_DDOT": 0,
        "norad_id": 58584,
        "name": "ARKTIKA-M 2",
        "group": "weather",
        "longitude_deg": NaN,
        "latitude_deg": NaN,
        "alt_km": NaN,
        "orbit_class": "HEO",
        "timestamp": "2025-11-30T09:33:02.548901+00:00"
      },
      "geometry": {
        "type": "Point",
        "coordinates": [
          NaN,
          NaN
        ]
      }
    },
    {
      "type": "Feature",
      "properties": {
        "OBJECT_NAME": "TIANMU-1 11",
        "OBJECT_ID": "2023-205A",
        "EPOCH": "2025-11-30T03:28:09.963264",
        "MEAN_MOTION": 15.24365615,
        "ECCENTRICITY": 0.000921,
        "INCLINATION": 97.3624,
        "RA_OF_ASC_NODE": 353.9912,
        "ARG_OF_PERICENTER": 358.6812,
        "MEAN_ANOMALY": 1.44,
        "EPHEMERIS_TYPE": 0,
        "CLASSIFICATION_TYPE": "U",
        "NORAD_CAT_ID": 58645,
        "ELEMENT_SET_NO": 999,
        "REV_AT_EPOCH": 10717,
        "BSTAR": 0.00031791,
        "MEAN_MOTION_DOT": 7.724e-05,
        "MEAN_MOTION_DDOT": 0,
        "norad_id": 58645,
        "name": "TIANMU-1 11",
        "group": "weather",
        "longitude_deg": NaN,
        "latitude_deg": NaN,
        "alt_km": NaN,
        "orbit_class": "HEO",
        "timestamp": "2025-11-30T09:33:02.549186+00:00"
      },
      "geometry": {
        "type": "Point",
        "coordinates": [
          NaN,
          NaN
        ]
      }
    },
    {
      "type": "Feature",
      "properties": {
        "OBJECT_NAME": "TIANMU-1 12",
        "OBJECT_ID": "2023-205B",
        "EPOCH": "2025-11-30T05:40:19.445952",
        "MEAN_MOTION": 15.24278108,
        "ECCENTRICITY": 0.0006997,
        "INCLINATION": 97.361,
        "RA_OF_ASC_NODE": 353.891,
        "ARG_OF_PERICENTER": 344.9332,
        "MEAN_ANOMALY": 15.1696,
        "EPHEMERIS_TYPE": 0,
        "CLASSIFICATION_TYPE": "U",
        "NORAD_CAT_ID": 58646,
        "ELEMENT_SET_NO": 999,
        "REV_AT_EPOCH": 10717,
        "BSTAR": 0.00030477,
        "MEAN_MOTION_DOT": 7.378e-05,
        "MEAN_MOTION_DDOT": 0,
        "norad_id": 58646,
        "name": "TIANMU-1 12",
        "group": "weather",
        "longitude_deg": NaN,
        "latitude_deg": NaN,
        "alt_km": NaN,
        "orbit_class": "HEO",
        "timestamp": "2025-11-30T09:33:02.549195+00:00"
      },
      "geometry": {
        "type": "Point",
        "coordinates": [
          NaN,
          NaN
        ]
      }
    }
  ]
}